[{"OBJECT_NAME":"STARLINK-30151","OBJECT_ID":"2023-079E","EPOCH":"2026-03-09T22:00:01.999584","MEAN_MOTION":15.17711074,"ECCENTRICITY":0.00012075,"INCLINATION":43,"RA_OF_ASC_NODE":105.4581,"ARG_OF_PERICENTER":287.8045,"MEAN_ANOMALY":174.4924,"EPHEMERIS_TYPE":0,"CLASSIFICATION_TYPE":"U","NORAD_CAT_ID":56827,"ELEMENT_SET_NO":999,"REV_AT_EPOCH":578,"BSTAR":0.055737382,"MEAN_MOTION_DOT":0.01254348,"MEAN_MOTION_DDOT":0},{"OBJECT_NAME":"SIMSAT 2","OBJECT_ID":"2000-026B","EPOCH":"2026-03-09T20:25:01.673184","MEAN_MOTION":15.29036787,"ECCENTRICITY":0.00037035,"INCLINATION":86.3514,"RA_OF_ASC_NODE":176.4271,"ARG_OF_PERICENTER":287.9875,"MEAN_ANOMALY":72.0969,"EPHEMERIS_TYPE":0,"CLASSIFICATION_TYPE":"U","NORAD_CAT_ID":26366,"ELEMENT_SET_NO":999,"REV_AT_EPOCH":42803,"BSTAR":0.00013465771,"MEAN_MOTION_DOT":3.833e-5,"MEAN_MOTION_DDOT":0}]
